ELECTRON KICK STAGE R/B 
1 67074U 25297C   25359.66696340  .00363332  38077-4  18274-2 0  9996
2 67074  97.4820 147.7565 0188929 222.6109 136.0361 15.60149834  1798
STARLINK-36230          
1 67075U 25298A   25359.75002315 -.01765253  00000+0 -11299-1 0  9991
2 67075  69.9970 212.9843 0003752 270.1588 346.1909 15.78890177  3068
STARLINK-36240          
1 67076U 25298B   25359.75002315 -.01766116  00000+0 -11306-1 0  9990
2 67076  69.9970 212.9819 0003637 266.1261 352.1588 15.78890244  3062
STARLINK-36243          
1 67077U 25298C   25359.75002315 -.01768021  00000+0 -11324-1 0  9998
2 67077  69.9966 212.9792 0003709 270.8233 349.6687 15.78880046  3069
STARLINK-36236          
1 67078U 25298D   25359.75002315 -.01765489  00000+0 -11305-1 0  9993
2 67078  69.9968 212.9771 0003775 269.1300 353.1775 15.78881901  3067
STARLINK-36159          
1 67079U 25298E   25359.75002315 -.01771526  00000+0 -11352-1 0  9995
2 67079  69.9971 212.9748 0003722 271.0670 353.4582 15.78875196  3068
STARLINK-36158          
1 67080U 25298F   25359.75002315 -.01765919  00000+0 -11317-1 0  9997
2 67080  69.9967 212.9720 0003762 266.5464   0.1016 15.78863235  3002
STARLINK-35864          
1 67081U 25298G   25359.75002315 -.01767479  00000+0 -11330-1 0  9996
2 67081  69.9970 212.9696 0003762 269.6926 358.9137 15.78861715  3061
STARLINK-36035          
1 67082U 25298H   25359.75002315 -.01769452  00000+0 -11346-1 0  9997
2 67082  69.9970 212.9673 0003754 271.3059 359.3526 15.78857880  3060
STARLINK-36170          
1 67083U 25298J   25359.75002315 -.01768979  00000+0 -11345-1 0  9990
2 67083  69.9967 212.9646 0003860 267.4361   5.3127 15.78851457  3066
STARLINK-36166          
1 67084U 25298K   25359.75002315 -.01770359  00000+0 -11357-1 0  9999
2 67084  69.9968 212.9620 0003773 271.7718   2.9708 15.78848790  3005
STARLINK-35794          
1 67085U 25298L   25359.75002315 -.01769247  00000+0 -11350-1 0  9997
2 67085  69.9969 212.9599 0003835 268.0849   8.6285 15.78845927  3063
