CCSDS_OMM_VERS = 2.0
CREATION_DATE  = 
ORIGINATOR     = 

OBJECT_NAME    = ELECTRON KICK STAGE R/B
OBJECT_ID      = 2025-297C
CENTER_NAME    = EARTH
REF_FRAME      = TEME
TIME_SYSTEM    = UTC
MEAN_ELEMENT_THEORY = SGP/SGP4

EPOCH          = 2025-12-25T16:00:25.637760
MEAN_MOTION    = 15.60149834
ECCENTRICITY   = .0188929
INCLINATION    = 97.4820
RA_OF_ASC_NODE = 147.7565
ARG_OF_PERICENTER = 222.6109
MEAN_ANOMALY   = 136.0361

EPHEMERIS_TYPE = 0
CLASSIFICATION_TYPE = U
NORAD_CAT_ID   = 67074
ELEMENT_SET_NO = 999
REV_AT_EPOCH   = 179
BSTAR          = .18274E-2
MEAN_MOTION_DOT = .363332E-2
MEAN_MOTION_DDOT = .38077E-4

CCSDS_OMM_VERS = 2.0
CREATION_DATE  = 
ORIGINATOR     = 

OBJECT_NAME    = STARLINK-36230
OBJECT_ID      = 2025-298A
CENTER_NAME    = EARTH
REF_FRAME      = TEME
TIME_SYSTEM    = UTC
MEAN_ELEMENT_THEORY = SGP/SGP4

EPOCH          = 2025-12-25T18:00:02.000160
MEAN_MOTION    = 15.78890177
ECCENTRICITY   = .0003752
INCLINATION    = 69.9970
RA_OF_ASC_NODE = 212.9843
ARG_OF_PERICENTER = 270.1588
MEAN_ANOMALY   = 346.1909

EPHEMERIS_TYPE = 0
CLASSIFICATION_TYPE = U
NORAD_CAT_ID   = 67075
ELEMENT_SET_NO = 999
REV_AT_EPOCH   = 306
BSTAR          = -.11299E-1
MEAN_MOTION_DOT = -.1765253E-1
MEAN_MOTION_DDOT = 0

CCSDS_OMM_VERS = 2.0
CREATION_DATE  = 
ORIGINATOR     = 

OBJECT_NAME    = STARLINK-36240
OBJECT_ID      = 2025-298B
CENTER_NAME    = EARTH
REF_FRAME      = TEME
TIME_SYSTEM    = UTC
MEAN_ELEMENT_THEORY = SGP/SGP4

EPOCH          = 2025-12-25T18:00:02.000160
MEAN_MOTION    = 15.78890244
ECCENTRICITY   = .0003637
INCLINATION    = 69.9970
RA_OF_ASC_NODE = 212.9819
ARG_OF_PERICENTER = 266.1261
MEAN_ANOMALY   = 352.1588

EPHEMERIS_TYPE = 0
CLASSIFICATION_TYPE = U
NORAD_CAT_ID   = 67076
ELEMENT_SET_NO = 999
REV_AT_EPOCH   = 306
BSTAR          = -.11306E-1
MEAN_MOTION_DOT = -.1766116E-1
MEAN_MOTION_DDOT = 0

CCSDS_OMM_VERS = 2.0
CREATION_DATE  = 
ORIGINATOR     = 

OBJECT_NAME    = STARLINK-36243
OBJECT_ID      = 2025-298C
CENTER_NAME    = EARTH
REF_FRAME      = TEME
TIME_SYSTEM    = UTC
MEAN_ELEMENT_THEORY = SGP/SGP4

EPOCH          = 2025-12-25T18:00:02.000160
MEAN_MOTION    = 15.78880046
ECCENTRICITY   = .0003709
INCLINATION    = 69.9966
RA_OF_ASC_NODE = 212.9792
ARG_OF_PERICENTER = 270.8233
MEAN_ANOMALY   = 349.6687

EPHEMERIS_TYPE = 0
CLASSIFICATION_TYPE = U
NORAD_CAT_ID   = 67077
ELEMENT_SET_NO = 999
REV_AT_EPOCH   = 306
BSTAR          = -.11324E-1
MEAN_MOTION_DOT = -.1768021E-1
MEAN_MOTION_DDOT = 0

CCSDS_OMM_VERS = 2.0
CREATION_DATE  = 
ORIGINATOR     = 

OBJECT_NAME    = STARLINK-36236
OBJECT_ID      = 2025-298D
CENTER_NAME    = EARTH
REF_FRAME      = TEME
TIME_SYSTEM    = UTC
MEAN_ELEMENT_THEORY = SGP/SGP4

EPOCH          = 2025-12-25T18:00:02.000160
MEAN_MOTION    = 15.78881901
ECCENTRICITY   = .0003775
INCLINATION    = 69.9968
RA_OF_ASC_NODE = 212.9771
ARG_OF_PERICENTER = 269.1300
MEAN_ANOMALY   = 353.1775

EPHEMERIS_TYPE = 0
CLASSIFICATION_TYPE = U
NORAD_CAT_ID   = 67078
ELEMENT_SET_NO = 999
REV_AT_EPOCH   = 306
BSTAR          = -.11305E-1
MEAN_MOTION_DOT = -.1765489E-1
MEAN_MOTION_DDOT = 0

CCSDS_OMM_VERS = 2.0
CREATION_DATE  = 
ORIGINATOR     = 

OBJECT_NAME    = STARLINK-36159
OBJECT_ID      = 2025-298E
CENTER_NAME    = EARTH
REF_FRAME      = TEME
TIME_SYSTEM    = UTC
MEAN_ELEMENT_THEORY = SGP/SGP4

EPOCH          = 2025-12-25T18:00:02.000160
MEAN_MOTION    = 15.78875196
ECCENTRICITY   = .0003722
INCLINATION    = 69.9971
RA_OF_ASC_NODE = 212.9748
ARG_OF_PERICENTER = 271.0670
MEAN_ANOMALY   = 353.4582

EPHEMERIS_TYPE = 0
CLASSIFICATION_TYPE = U
NORAD_CAT_ID   = 67079
ELEMENT_SET_NO = 999
REV_AT_EPOCH   = 306
BSTAR          = -.11352E-1
MEAN_MOTION_DOT = -.1771526E-1
MEAN_MOTION_DDOT = 0

CCSDS_OMM_VERS = 2.0
CREATION_DATE  = 
ORIGINATOR     = 

OBJECT_NAME    = STARLINK-36158
OBJECT_ID      = 2025-298F
CENTER_NAME    = EARTH
REF_FRAME      = TEME
TIME_SYSTEM    = UTC
MEAN_ELEMENT_THEORY = SGP/SGP4

EPOCH          = 2025-12-25T18:00:02.000160
MEAN_MOTION    = 15.78863235
ECCENTRICITY   = .0003762
INCLINATION    = 69.9967
RA_OF_ASC_NODE = 212.9720
ARG_OF_PERICENTER = 266.5464
MEAN_ANOMALY   = 0.1016

EPHEMERIS_TYPE = 0
CLASSIFICATION_TYPE = U
NORAD_CAT_ID   = 67080
ELEMENT_SET_NO = 999
REV_AT_EPOCH   = 300
BSTAR          = -.11317E-1
MEAN_MOTION_DOT = -.1765919E-1
MEAN_MOTION_DDOT = 0

CCSDS_OMM_VERS = 2.0
CREATION_DATE  = 
ORIGINATOR     = 

OBJECT_NAME    = STARLINK-35864
OBJECT_ID      = 2025-298G
CENTER_NAME    = EARTH
REF_FRAME      = TEME
TIME_SYSTEM    = UTC
MEAN_ELEMENT_THEORY = SGP/SGP4

EPOCH          = 2025-12-25T18:00:02.000160
MEAN_MOTION    = 15.78861715
ECCENTRICITY   = .0003762
INCLINATION    = 69.9970
RA_OF_ASC_NODE = 212.9696
ARG_OF_PERICENTER = 269.6926
MEAN_ANOMALY   = 358.9137

EPHEMERIS_TYPE = 0
CLASSIFICATION_TYPE = U
NORAD_CAT_ID   = 67081
ELEMENT_SET_NO = 999
REV_AT_EPOCH   = 306
BSTAR          = -.1133E-1
MEAN_MOTION_DOT = -.1767479E-1
MEAN_MOTION_DDOT = 0

CCSDS_OMM_VERS = 2.0
CREATION_DATE  = 
ORIGINATOR     = 

OBJECT_NAME    = STARLINK-36035
OBJECT_ID      = 2025-298H
CENTER_NAME    = EARTH
REF_FRAME      = TEME
TIME_SYSTEM    = UTC
MEAN_ELEMENT_THEORY = SGP/SGP4

EPOCH          = 2025-12-25T18:00:02.000160
MEAN_MOTION    = 15.78857880
ECCENTRICITY   = .0003754
INCLINATION    = 69.9970
RA_OF_ASC_NODE = 212.9673
ARG_OF_PERICENTER = 271.3059
MEAN_ANOMALY   = 359.3526

EPHEMERIS_TYPE = 0
CLASSIFICATION_TYPE = U
NORAD_CAT_ID   = 67082
ELEMENT_SET_NO = 999
REV_AT_EPOCH   = 306
BSTAR          = -.11346E-1
MEAN_MOTION_DOT = -.1769452E-1
MEAN_MOTION_DDOT = 0

CCSDS_OMM_VERS = 2.0
CREATION_DATE  = 
ORIGINATOR     = 

OBJECT_NAME    = STARLINK-36170
OBJECT_ID      = 2025-298J
CENTER_NAME    = EARTH
REF_FRAME      = TEME
TIME_SYSTEM    = UTC
MEAN_ELEMENT_THEORY = SGP/SGP4

EPOCH          = 2025-12-25T18:00:02.000160
MEAN_MOTION    = 15.78851457
ECCENTRICITY   = .000386
INCLINATION    = 69.9967
RA_OF_ASC_NODE = 212.9646
ARG_OF_PERICENTER = 267.4361
MEAN_ANOMALY   = 5.3127

EPHEMERIS_TYPE = 0
CLASSIFICATION_TYPE = U
NORAD_CAT_ID   = 67083
ELEMENT_SET_NO = 999
REV_AT_EPOCH   = 306
BSTAR          = -.11345E-1
MEAN_MOTION_DOT = -.1768979E-1
MEAN_MOTION_DDOT = 0

CCSDS_OMM_VERS = 2.0
CREATION_DATE  = 
ORIGINATOR     = 

OBJECT_NAME    = STARLINK-36166
OBJECT_ID      = 2025-298K
CENTER_NAME    = EARTH
REF_FRAME      = TEME
TIME_SYSTEM    = UTC
MEAN_ELEMENT_THEORY = SGP/SGP4

EPOCH          = 2025-12-25T18:00:02.000160
MEAN_MOTION    = 15.78848790
ECCENTRICITY   = .0003773
INCLINATION    = 69.9968
RA_OF_ASC_NODE = 212.9620
ARG_OF_PERICENTER = 271.7718
MEAN_ANOMALY   = 2.9708

EPHEMERIS_TYPE = 0
CLASSIFICATION_TYPE = U
NORAD_CAT_ID   = 67084
ELEMENT_SET_NO = 999
REV_AT_EPOCH   = 300
BSTAR          = -.11357E-1
MEAN_MOTION_DOT = -.1770359E-1
MEAN_MOTION_DDOT = 0

CCSDS_OMM_VERS = 2.0
CREATION_DATE  = 
ORIGINATOR     = 

OBJECT_NAME    = STARLINK-35794
OBJECT_ID      = 2025-298L
CENTER_NAME    = EARTH
REF_FRAME      = TEME
TIME_SYSTEM    = UTC
MEAN_ELEMENT_THEORY = SGP/SGP4

EPOCH          = 2025-12-25T18:00:02.000160
MEAN_MOTION    = 15.78845927
ECCENTRICITY   = .0003835
INCLINATION    = 69.9969
RA_OF_ASC_NODE = 212.9599
ARG_OF_PERICENTER = 268.0849
MEAN_ANOMALY   = 8.6285

EPHEMERIS_TYPE = 0
CLASSIFICATION_TYPE = U
NORAD_CAT_ID   = 67085
ELEMENT_SET_NO = 999
REV_AT_EPOCH   = 306
BSTAR          = -.1135E-1
MEAN_MOTION_DOT = -.1769247E-1
MEAN_MOTION_DDOT = 0

